$$SOE
2460154.500000000, A.D. 2023-Jul-29 00:00:00.0000, -4.204761254794186E+08, 7.603550891472630E+07, -1.885096889052886E+07,
2460161.500000000, A.D. 2023-Aug-05 00:00:00.0000, -4.225875161303455E+08, 6.580785674763803E+07, -1.908323591286621E+07,
2460168.500000000, A.D. 2023-Aug-12 00:00:00.0000, -4.244375090104687E+08, 5.553947012604636E+07, -1.930369411904771E+07,
2460175.500000000, A.D. 2023-Aug-19 00:00:00.0000, -4.260256681800499E+08, 4.523679246188992E+07, -1.951223911307125E+07,
2460182.500000000, A.D. 2023-Aug-26 00:00:00.0000, -4.273517024466613E+08, 3.490625132857939E+07, -1.970877356962935E+07,
2460189.500000000, A.D. 2023-Sep-02 00:00:00.0000, -4.284154639056748E+08, 2.455425596879823E+07, -1.989320719545854E+07,
2460196.500000000, A.D. 2023-Sep-09 00:00:00.0000, -4.292169464675616E+08, 1.418719476534649E+07, -2.006545670106396E+07,
2460203.500000000, A.D. 2023-Sep-16 00:00:00.0000, -4.297562842060913E+08, 3.811432613901452E+06, -2.022544580309238E+07,
2460210.500000000, A.D. 2023-Sep-23 00:00:00.0000, -4.300337491131430E+08, -6.566691518595079E+06, -2.037310527214340E+07,
2460217.500000000, A.D. 2023-Sep-30 00:00:00.0000, -4.300497486012502E+08, -1.694086566250898E+07, -2.050837289752956E+07,
2460224.500000000, A.D. 2023-Oct-07 00:00:00.0000, -4.298048251096016E+08, -2.730480508785960E+07, -2.063119319753265E+07,
2460231.500000000, A.D. 2023-Oct-14 00:00:00.0000, -4.292996567774591E+08, -3.765225503725030E+07, -2.074151724160404E+07,
2460238.500000000, A.D. 2023-Oct-21 00:00:00.0000, -4.285350559591187E+08, -4.797699434840684E+07, -2.083930274962489E+07,
2460245.500000000, A.D. 2023-Oct-28 00:00:00.0000, -4.275119670039805E+08, -5.827283770832415E+07, -2.092451415230531E+07,
2460252.500000000, A.D. 2023-Nov-04 00:00:00.0000, -4.262314645514201E+08, -6.853363731367306E+07, -2.099712256072275E+07,
2460259.500000000, A.D. 2023-Nov-11 00:00:00.0000, -4.246947521648940E+08, -7.875328454167843E+07, -2.105710571040208E+07,
2460266.500000000, A.D. 2023-Nov-18 00:00:00.0000, -4.229031610880096E+08, -8.892571169897014E+07, -2.110444790536152E+07,
2460273.500000000, A.D. 2023-Nov-25 00:00:00.0000, -4.208581490510010E+08, -9.904489382867727E+07, -2.113913996683945E+07,
2460280.500000000, A.D. 2023-Dec-02 00:00:00.0000, -4.185612991001576E+08, -1.091048505900336E+08, -2.116117919008496E+07,
2460287.500000000, A.D. 2023-Dec-09 00:00:00.0000, -4.160143183730969E+08, -1.190996482726646E+08, -2.117056932114906E+07,
2460294.500000000, A.D. 2023-Dec-16 00:00:00.0000, -4.132190365331587E+08, -1.290234019361576E+08, -2.116732057910950E+07,
2460301.500000000, A.D. 2023-Dec-23 00:00:00.0000, -4.101774035150999E+08, -1.388702769902311E+08, -2.115144969964240E+07,
2460308.500000000, A.D. 2023-Dec-30 00:00:00.0000, -4.068914879222575E+08, -1.486344891685934E+08, -2.112297979138985E+07,
2460315.500000000, A.D. 2024-Jan-06 00:00:00.0000, -4.033634778474811E+08, -1.583103052597480E+08, -2.108194003569582E+07,
2460322.500000000, A.D. 2024-Jan-13 00:00:00.0000, -3.995956809456382E+08, -1.678920464037991E+08, -2.102836566862397E+07,
2460329.500000000, A.D. 2024-Jan-20 00:00:00.0000, -3.955905225326920E+08, -1.773740908713838E+08, -2.096229810518512E+07,
2460336.500000000, A.D. 2024-Jan-27 00:00:00.0000, -3.913505437356428E+08, -1.867508756741558E+08, -2.088378496598230E+07,
2460343.500000000, A.D. 2024-Feb-03 00:00:00.0000, -3.868784001181215E+08, -1.960168979600955E+08, -2.079288004465002E+07,
2460350.500000000, A.D. 2024-Feb-10 00:00:00.0000, -3.821768605043031E+08, -2.051667164908046E+08, -2.068964326609199E+07,
2460357.500000000, A.D. 2024-Feb-17 00:00:00.0000, -3.772488058648458E+08, -2.141949531975271E+08, -2.057414064842215E+07,
2460364.500000000, A.D. 2024-Feb-24 00:00:00.0000, -3.720972282310122E+08, -2.230962948037304E+08, -2.044644427118076E+07,
2460371.500000000, A.D. 2024-Mar-02 00:00:00.0000, -3.667252296081361E+08, -2.318654945483209E+08, -2.030663225529702E+07,
2460378.500000000, A.D. 2024-Mar-09 00:00:00.0000, -3.611360207488021E+08, -2.404973740738092E+08, -2.015478877260076E+07,
2460385.500000000, A.D. 2024-Mar-16 00:00:00.0000, -3.553329193888984E+08, -2.489868252838150E+08, -1.999100410487996E+07,
2460392.500000000, A.D. 2024-Mar-23 00:00:00.0000, -3.493193480480787E+08, -2.573288110625345E+08, -1.981537465218292E+07,
2460399.500000000, A.D. 2024-Mar-30 00:00:00.0000, -3.430988336331441E+08, -2.655183648848315E+08, -1.962800268686453E+07,
2460406.500000000, A.D. 2024-Apr-06 00:00:00.0000, -3.366750085863585E+08, -2.735505926875957E+08, -1.942899615217035E+07,
2460413.500000000, A.D. 2024-Apr-13 00:00:00.0000, -3.300516100274338E+08, -2.814206761691566E+08, -1.921846876287448E+07,
2460420.500000000, A.D. 2024-Apr-20 00:00:00.0000, -3.232324778408368E+08, -2.891238748413100E+08, -1.899654010171351E+07,
2460427.500000000, A.D. 2024-Apr-27 00:00:00.0000, -3.162215532230144E+08, -2.966555273952731E+08, -1.876333561795163E+07,
2460434.500000000, A.D. 2024-May-04 00:00:00.0000, -3.090228775980577E+08, -3.040110530852667E+08, -1.851898659329425E+07,
2460441.500000000, A.D. 2024-May-11 00:00:00.0000, -3.016405916599283E+08, -3.111859532328566E+08, -1.826363010514289E+07,
2460448.500000000, A.D. 2024-May-18 00:00:00.0000, -2.940789344563602E+08, -3.181758128323418E+08, -1.799740899277925E+07,
2460455.500000000, A.D. 2024-May-25 00:00:00.0000, -2.863422424872076E+08, -3.249763022662455E+08, -1.772047182908222E+07,
2460462.500000000, A.D. 2024-Jun-01 00:00:00.0000, -2.784349487550032E+08, -3.315831791902590E+08, -1.743297290766722E+07,
2460469.500000000, A.D. 2024-Jun-08 00:00:00.0000, -2.703615815192135E+08, -3.379922906125596E+08, -1.713507226963387E+07,
2460476.500000000, A.D. 2024-Jun-15 00:00:00.0000, -2.621267623528111E+08, -3.441995746241081E+08, -1.682693576172327E+07,
2460483.500000000, A.D. 2024-Jun-22 00:00:00.0000, -2.537352045043183E+08, -3.502010606056368E+08, -1.650873493729708E+07,
2460490.500000000, A.D. 2024-Jun-29 00:00:00.0000, -2.451917136840120E+08, -3.559928697325795E+08, -1.618064675402978E+07,
2460497.500000000, A.D. 2024-Jul-06 00:00:00.0000, -2.365011886265292E+08, -3.615712182506878E+08, -1.584285351272292E+07,
2460504.500000000, A.D. 2024-Jul-13 00:00:00.0000, -2.276686194789615E+08, -3.669324207002306E+08, -1.549554298506922E+07,
2460511.500000000, A.D. 2024-Jul-20 00:00:00.0000, -2.186990859981167E+08, -3.720728919405497E+08, -1.513890845402943E+07,
2460518.500000000, A.D. 2024-Jul-27 00:00:00.0000, -2.095977562098775E+08, -3.769891489338992E+08, -1.477314868475118E+07,
2460525.500000000, A.D. 2024-Aug-03 00:00:00.0000, -2.003698852538504E+08, -3.816778126629528E+08, -1.439846788155839E+07,
2460532.500000000, A.D. 2024-Aug-10 00:00:00.0000, -1.910208142433193E+08, -3.861356101865106E+08, -1.401507564664486E+07,
2460539.500000000, A.D. 2024-Aug-17 00:00:00.0000, -1.815559690893248E+08, -3.903593768125220E+08, -1.362318694322038E+07,
2460546.500000000, A.D. 2024-Aug-24 00:00:00.0000, -1.719808592578755E+08, -3.943460584116994E+08, -1.322302206765762E+07,
2460553.500000000, A.D. 2024-Aug-31 00:00:00.0000, -1.623010763419232E+08, -3.980927139338268E+08, -1.281480664636499E+07,
2460560.500000000, A.D. 2024-Sep-07 00:00:00.0000, -1.525222920800590E+08, -4.015965180004313E+08, -1.239877168060532E+07,
2460567.500000000, A.D. 2024-Sep-14 00:00:00.0000, -1.426502557343125E+08, -4.048547625769508E+08, -1.197515356559581E+07,
2460574.500000000, A.D. 2024-Sep-21 00:00:00.0000, -1.326907928530335E+08, -4.078648573088650E+08, -1.154419386385611E+07,
2460581.500000000, A.D. 2024-Sep-28 00:00:00.0000, -1.226498059018368E+08, -4.106243317451793E+08, -1.110613905166459E+07,
2460588.500000000, A.D. 2024-Oct-05 00:00:00.0000, -1.125332730871827E+08, -4.131308394447550E+08, -1.066124057502401E+07,
2460595.500000000, A.D. 2024-Oct-12 00:00:00.0000, -1.023472457274447E+08, -4.153821609842920E+08, -1.020975493852493E+07,
2460602.500000000, A.D. 2024-Oct-19 00:00:00.0000, -9.209784591695374E+07, -4.173762061386593E+08, -9.751943688696921E+06,
2460609.500000000, A.D. 2024-Oct-26 00:00:00.0000, -8.179126451108564E+07, -4.191110160355025E+08, -9.288073354415298E+06,
2460616.500000000, A.D. 2024-Nov-02 00:00:00.0000, -7.143375917196284E+07, -4.205847654323921E+08, -8.818415380005449E+06,
2460623.500000000, A.D. 2024-Nov-09 00:00:00.0000, -6.103165237521276E+07, -4.217957650942272E+08, -8.343246058001906E+06,
2460630.500000000, A.D. 2024-Nov-16 00:00:00.0000, -5.059132934831366E+07, -4.227424642681653E+08, -7.862846463631392E+06,
2460637.500000000, A.D. 2024-Nov-23 00:00:00.0000, -4.011923588968281E+07, -4.234234533033517E+08, -7.377502399045318E+06,
2460644.500000000, A.D. 2024-Nov-30 00:00:00.0000, -2.962187585632687E+07, -4.238374664552644E+08, -6.887504369460285E+06,
2460651.500000000, A.D. 2024-Dec-07 00:00:00.0000, -1.910580789677890E+07, -4.239833844508138E+08, -6.393147594840944E+06,
2460658.500000000, A.D. 2024-Dec-14 00:00:00.0000, -8.577642114173209E+06, -4.238602355863121E+08, -5.894731893476486E+06,
2460665.500000000, A.D. 2024-Dec-21 00:00:00.0000, 1.955961026032945E+06, -4.234671965938872E+08, -5.392561325792432E+06,
2460672.500000000, A.D. 2024-Dec-28 00:00:00.0000, 1.248829152110586E+07, -4.228035962383817E+08, -4.886944021528989E+06,
2460679.500000000, A.D. 2025-Jan-04 00:00:00.0000, 2.301259299098815E+07, -4.218689192651147E+08, -4.378192233981013E+06,
2460686.500000000, A.D. 2025-Jan-11 00:00:00.0000, 3.352206635580811E+07, -4.206628090354621E+08, -3.866622318097591E+06,
2460693.500000000, A.D. 2025-Jan-18 00:00:00.0000, 4.400987311754121E+07, -4.191850697646961E+08, -3.352554622862726E+06,
2460700.500000000, A.D. 2025-Jan-25 00:00:00.0000, 5.446913849276277E+07, -4.174356688315123E+08, -2.836313358524978E+06,
2460707.500000000, A.D. 2025-Feb-01 00:00:00.0000, 6.489295458925148E+07, -4.154147391836638E+08, -2.318226458003521E+06,
2460714.500000000, A.D. 2025-Feb-08 00:00:00.0000, 7.527438368811212E+07, -4.131225818135826E+08, -1.798625435804725E+06,
$$EOE